ONEWEB-0492             
1 54114U 22138B   24184.43494529  .00000095  00000+0  20589-3 0  9990
2 54114  87.9151  87.2011 0002123  69.4850 290.6510 13.19727424 82561
ONEWEB-0495             
1 54115U 22138C   24184.86772883 -.00000300  00000+0 -78193-3 0  9995
2 54115  87.9152  87.1263 0002744  68.8177 291.3248 13.19724769 83471
ONEWEB-0497             
1 54116U 22138D   24184.80454831 -.00000131  00000+0 -35841-3 0  9995
2 54116  87.9147  87.1263 0002022  73.9849 286.1506 13.19725311 83459
ONEWEB-0499             
1 54117U 22138E   24184.78718419  .00000043  00000+0  74373-4 0  9992
2 54117  87.9152  87.1317 0002377  85.6163 274.5241 13.19726999 83469
ONEWEB-0500             
1 54118U 22138F   24184.71451229 -.00000027  00000+0 -98923-4 0  9990
2 54118  87.9149  87.1418 0001962  74.7380 285.3969 13.19727754 83464
ONEWEB-0501             
1 54119U 22138G   24184.28962295 -.00000703  00000+0 -17882-2 0  9997
2 54119  87.9146  87.2244 0002461  72.9805 287.1597 13.19729267 82510
ONEWEB-0502             
1 54120U 22138H   24184.42704444  .00000051  00000+0  94259-4 0  9994
2 54120  87.9146  87.1864 0002314  77.3524 282.7868 13.19724485 82556
ONEWEB-0503             
1 54121U 22138J   24184.79507215 -.00000010  00000+0 -56958-4 0  9993
2 54121  87.9145  87.1196 0002103  90.1065 270.0309 13.19723943 83462
